{
    "links": {
        "self": "http://www.neowsapp.com/rest/v1/neo/3609384?api_key=iIulBulltgU6a56xZRHN4H3l9WmuAYTsLGpBGhQ2"
    },
    "id": "3609384",
    "neo_reference_id": "3609384",
    "name": "(2012 SS56)",
    "designation": "2012 SS56",
    "nasa_jpl_url": "http://ssd.jpl.nasa.gov/sbdb.cgi?sstr=3609384",
    "absolute_magnitude_h": 22.0,
    "estimated_diameter": {
        "kilometers": {
            "estimated_diameter_min": 0.1058168859,
            "estimated_diameter_max": 0.2366137501
        },
        "meters": {
            "estimated_diameter_min": 105.8168859331,
            "estimated_diameter_max": 236.6137501138
        },
        "miles": {
            "estimated_diameter_min": 0.0657515442,
            "estimated_diameter_max": 0.1470249225
        },
        "feet": {
            "estimated_diameter_min": 347.1682720448,
            "estimated_diameter_max": 776.2918559233
        }
    },
    "is_potentially_hazardous_asteroid": false,
    "close_approach_data": [
        {
            "close_approach_date": "2012-09-25",
            "close_approach_date_full": "2012-Sep-25 08:33",
            "epoch_date_close_approach": 1348561980000,
            "relative_velocity": {
                "kilometers_per_second": "25.602880404",
                "kilometers_per_hour": "92170.3694545336",
                "miles_per_hour": "57271.0831757906"
            },
            "miss_distance": {
                "astronomical": "0.0606930818",
                "lunar": "23.6096088202",
                "kilometers": "9079555.761015766",
                "miles": "5641774.3373429308"
            },
            "orbiting_body": "Earth"
        }
    ],
    "orbital_data": {
        "orbit_id": "5",
        "orbit_determination_date": "2017-04-06 08:48:50",
        "first_observation_date": "2012-09-25",
        "last_observation_date": "2012-10-11",
        "data_arc_in_days": 16,
        "observations_used": 45,
        "orbit_uncertainty": "8",
        "minimum_orbit_intersection": ".0542043",
        "jupiter_tisserand_invariant": "3.512",
        "epoch_osculation": "2456198.5",
        "eccentricity": ".4460044080563531",
        "semi_major_axis": "1.884544478211258",
        "inclination": "45.84282526199776",
        "ascending_node_longitude": "184.0210696956957",
        "orbital_period": "944.9482276177238",
        "perihelion_distance": "1.044029333750777",
        "perihelion_argument": "163.7695364988136",
        "aphelion_distance": "2.725059622671739",
        "perihelion_time": "2456181.131309961780",
        "mean_anomaly": "6.617006340678301",
        "mean_motion": ".3809732527966993",
        "equinox": "J2000",
        "orbit_class": {
            "orbit_class_type": "AMO",
            "orbit_class_description": "Near-Earth asteroid orbits similar to that of 1221 Amor",
            "orbit_class_range": "1.017 AU < q (perihelion) < 1.3 AU"
        }
    },
    "is_sentry_object": false
}